GLOBALSTAR M069         
1 31573U 07020C   26200.64961646 -.00000057  00000+0  32477-3 0  9998
2 31573  52.0012 160.2434 0001530 219.6469 311.6781 12.23472409882770
GLOBALSTAR M072         
1 31574U 07020D   26200.50570150 -.00000088  00000+0 -53706-4 0  9994
2 31574  51.9950  14.2047 0001651  43.5075 349.0292 11.91658777878831
GLOBALSTAR M066         
1 32265U 07048C   26200.49296850 -.00000042  00000+0  44668-3 0  9997
2 32265  51.9612 325.1731 0005542 110.3965 326.1287 12.30389989864208
GLOBALSTAR M079         
1 37188U 10054A   26200.51681984 -.00000110  00000+0 -36370-4 0  9995
2 37188  52.0055  10.2535 0001124  84.9316 310.1934 12.62266396726639
GLOBALSTAR M074         
1 37189U 10054B   26200.25637730 -.00000107  00000+0 -19249-4 0  9999
2 37189  52.0035  10.3070 0000856  98.7148  72.2570 12.62262067727207
GLOBALSTAR M076         
1 37190U 10054C   26200.49019249 -.00000093  00000+0  58017-4 0  9995
2 37190  52.0050   9.8014 0001095  98.1215 295.7676 12.62262543726951
GLOBALSTAR M077         
1 37191U 10054D   26200.42445300 -.00000101  00000+0 -41366-3 0  9999
2 37191  51.9962  97.4725 0002186 232.9101 298.6863 11.67547218724900
GLOBALSTAR M075         
1 37192U 10054E   26200.58089054 -.00000103  00000+0  49703-5 0  9993
2 37192  51.9955  51.5610 0000782  71.4457 315.4000 12.62267901726038
GLOBALSTAR M073         
1 37193U 10054F   26200.51319668 -.00000098  00000+0  31452-4 0  9998
2 37193  52.0081 325.8934 0001019 102.4258 334.9601 12.62266923728011
GLOBALSTAR M083         
1 37739U 11033A   26200.62067877 -.00000086  00000+0  10078-3 0  9993
2 37739  51.9857 273.7518 0000700 110.5932  36.6997 12.62264353697047
GLOBALSTAR M088         
1 37740U 11033B   26200.35705037 -.00000106  00000+0 -98966-5 0  9990
2 37740  52.0190 181.0577 0000123  43.6517 103.8412 12.62269483692550
GLOBALSTAR M091         
1 37741U 11033C   26200.20979258 -.00000093  00000+0  62743-4 0  9990
2 37741  51.9986 144.4239 0000520  31.8856 106.6630 12.62264247693328
GLOBALSTAR M085         
1 37742U 11033D   26200.20272492 -.00000084  00000+0  11143-3 0  9994
2 37742  52.0128  95.7659 0000860  47.6871 118.7345 12.62264435693834
GLOBALSTAR M081         
1 37743U 11033E   26200.67100214 -.00000090  00000+0  79498-4 0  9993
2 37743  51.9959  96.7397 0000751  60.7382 314.5153 12.62265353694044
GLOBALSTAR M089         
1 37744U 11033F   26200.63638990 -.00000103  00000+0  43828-5 0  9991
2 37744  51.9940  50.9974 0000718  94.9535 304.0818 12.62267637694881
GLOBALSTAR M084         
1 38040U 11080A   26200.48559624 -.00000086  00000+0  10119-3 0  9997
2 38040  52.0012 278.9570 0000737 137.6772 235.5413 12.62263669672848
GLOBALSTAR M080         
1 38041U 11080B   26200.64484597 -.00000088  00000+0  89942-4 0  9995
2 38041  52.0062 280.2020 0000296  72.8567  74.0769 12.62257608672983
GLOBALSTAR M082         
1 38042U 11080C   26200.50556556 -.00000100  00000+0  19362-4 0  9990
2 38042  52.0053 236.1294 0000192  64.2146  99.5463 12.62264332673672
GLOBALSTAR M092         
1 38043U 11080D   26200.36813041 -.00000088  00000+0  87633-4 0  9991
2 38043  52.0105 326.9453 0000733 109.0525 269.2879 12.62267865672115
GLOBALSTAR M090         
1 38044U 11080E   26200.27627958 -.00000098  00000+0  30166-4 0  9992
2 38044  52.0097 230.7931 0000390  84.5649 355.6327 12.62269627673760
GLOBALSTAR M086         
1 38045U 11080F   26200.36181826 -.00000106  00000+0 -14247-4 0  9995
2 38045  51.9874 230.4091 0001434 117.6917 255.3965 12.62287883673726
GLOBALSTAR M097         
1 39072U 13005A   26200.54915362 -.00000102  00000+0  77477-5 0  9995
2 39072  52.0032 144.8220 0000526  44.1782 315.9127 12.62271289620999
GLOBALSTAR M093         
1 39073U 13005B   26200.20566947 -.00000089  00000+0  79895-4 0  9999
2 39073  52.0096 139.2271 0000748  50.0977 309.9955 12.62266357620905
GLOBALSTAR M094         
1 39074U 13005C   26200.04716006 -.00000096  00000+0  45405-4 0  9993
2 39074  51.9968  53.7951 0001035  68.6970 291.4007 12.62264237622499
GLOBALSTAR M096         
1 39075U 13005D   26200.45660522 -.00000084  00000+0  11020-3 0  9992
2 39075  52.0075 101.3754 0000817  50.2263 309.8676 12.62265818621469
GLOBALSTAR M078         
1 39076U 13005E   26200.35056226 -.00000111  00000+0 -42492-4 0  9992
2 39076  51.9846 185.6638 0000936 350.4384   9.6465 12.62260108620075
GLOBALSTAR M095         
1 39077U 13005F   26200.37723299 -.00000112  00000+0 -46915-4 0  9991
2 39077  52.0053 183.2316 0000551  19.9475 340.1413 12.62264091619930
GLOBALSTAR M087         
1 52888U 22064A   26200.46951072 -.00000092  00000+0  65562-4 0  9998
2 52888  52.0017 324.1716 0000903  90.4964 269.6006 12.62269398195211
