OBJECT_NAME,OBJECT_ID,EPOCH,MEAN_MOTION,ECCENTRICITY,INCLINATION,RA_OF_ASC_NODE,ARG_OF_PERICENTER,MEAN_ANOMALY,EPHEMERIS_TYPE,CLASSIFICATION_TYPE,NORAD_CAT_ID,ELEMENT_SET_NO,REV_AT_EPOCH,BSTAR,MEAN_MOTION_DOT,MEAN_MOTION_DDOT
GLOBALSTAR M069,2007-020C,2026-07-19T15:35:26.862144,12.23472409,.00015307,52.0012,160.2434,219.6469,311.6781,0,U,31573,999,88277,.32476634E-3,-.57E-6,0
GLOBALSTAR M072,2007-020D,2026-07-19T12:08:12.609600,11.91658777,.00016516,51.9950,14.2047,43.5075,349.0292,0,U,31574,999,87883,-.53706109E-4,-.88E-6,0
GLOBALSTAR M066,2007-048C,2026-07-19T11:49:52.478400,12.30389989,.00055423,51.9612,325.1731,110.3965,326.1287,0,U,32265,999,86420,.44668166E-3,-.42E-6,0
GLOBALSTAR M079,2010-054A,2026-07-19T12:24:13.234176,12.62266396,.00011246,52.0055,10.2535,84.9316,310.1934,0,U,37188,999,72663,-.36369589E-4,-.11E-5,0
GLOBALSTAR M074,2010-054B,2026-07-19T06:09:10.998720,12.62262067,.00008565,52.0035,10.3070,98.7148,72.2570,0,U,37189,999,72720,-.19249372E-4,-.107E-5,0
GLOBALSTAR M076,2010-054C,2026-07-19T11:45:52.631136,12.62262543,.00010955,52.0050,9.8014,98.1215,295.7676,0,U,37190,999,72695,.58016885E-4,-.93E-6,0
GLOBALSTAR M077,2010-054D,2026-07-19T10:11:12.739200,11.67547218,.00021865,51.9962,97.4725,232.9101,298.6863,0,U,37191,999,72490,-.413657E-3,-.101E-5,0
GLOBALSTAR M075,2010-054E,2026-07-19T13:56:28.942656,12.62267901,.00007821,51.9955,51.5610,71.4457,315.4000,0,U,37192,999,72603,.4970291E-5,-.103E-5,0
GLOBALSTAR M073,2010-054F,2026-07-19T12:19:00.193152,12.62266923,.00010192,52.0081,325.8934,102.4258,334.9601,0,U,37193,999,72801,.31452101E-4,-.98E-6,0
GLOBALSTAR M083,2011-033A,2026-07-19T14:53:46.645728,12.62264353,.00007002,51.9857,273.7518,110.5932,36.6997,0,U,37739,999,69704,.10077812E-3,-.86E-6,0
GLOBALSTAR M088,2011-033B,2026-07-19T08:34:09.151968,12.62269483,.00001238,52.0190,181.0577,43.6517,103.8412,0,U,37740,999,69255,-.9896608E-5,-.106E-5,0
GLOBALSTAR M091,2011-033C,2026-07-19T05:02:06.078912,12.62264247,.00005204,51.9986,144.4239,31.8856,106.6630,0,U,37741,999,69332,.62743409E-4,-.93E-6,0
GLOBALSTAR M085,2011-033D,2026-07-19T04:51:55.433088,12.62264435,.00008602,52.0128,95.7659,47.6871,118.7345,0,U,37742,999,69383,.11143185E-3,-.84E-6,0
GLOBALSTAR M081,2011-033E,2026-07-19T16:06:14.584896,12.62265353,.0000751,51.9959,96.7397,60.7382,314.5153,0,U,37743,999,69404,.79498315E-4,-.9E-6,0
GLOBALSTAR M089,2011-033F,2026-07-19T15:16:24.087360,12.62267637,.00007184,51.9940,50.9974,94.9535,304.0818,0,U,37744,999,69488,.4382825E-5,-.103E-5,0
GLOBALSTAR M084,2011-080A,2026-07-19T11:39:15.515136,12.62263669,.0000737,52.0012,278.9570,137.6772,235.5413,0,U,38040,999,67284,.10119254E-3,-.86E-6,0
GLOBALSTAR M080,2011-080B,2026-07-19T15:28:34.691808,12.62257608,.00002969,52.0062,280.2020,72.8567,74.0769,0,U,38041,999,67298,.89941798E-4,-.88E-6,0
GLOBALSTAR M082,2011-080C,2026-07-19T12:08:00.864384,12.62264332,.00001923,52.0053,236.1294,64.2146,99.5463,0,U,38042,999,67367,.19361661E-4,-.1E-5,0
GLOBALSTAR M092,2011-080D,2026-07-19T08:50:06.467424,12.62267865,.00007332,52.0105,326.9453,109.0525,269.2879,0,U,38043,999,67211,.8763271E-4,-.88E-6,0
GLOBALSTAR M090,2011-080E,2026-07-19T06:37:50.555712,12.62269627,.00003901,52.0097,230.7931,84.5649,355.6327,0,U,38044,999,67376,.30166293E-4,-.98E-6,0
GLOBALSTAR M086,2011-080F,2026-07-19T08:41:01.097664,12.62287883,.0001434,51.9874,230.4091,117.6917,255.3965,0,U,38045,999,67372,-.14247227E-4,-.106E-5,0
GLOBALSTAR M097,2013-005A,2026-07-19T13:10:46.872768,12.62271289,.00005266,52.0032,144.8220,44.1782,315.9127,0,U,39072,999,62099,.7747664E-5,-.102E-5,0
GLOBALSTAR M093,2013-005B,2026-07-19T04:56:09.842208,12.62266357,.00007481,52.0096,139.2271,50.0977,309.9955,0,U,39073,999,62090,.79894857E-4,-.89E-6,0
GLOBALSTAR M094,2013-005C,2026-07-19T01:07:54.629184,12.62264237,.00010355,51.9968,53.7951,68.6970,291.4007,0,U,39074,999,62249,.45405163E-4,-.96E-6,0
GLOBALSTAR M096,2013-005D,2026-07-19T10:57:30.691008,12.62265818,.00008175,52.0075,101.3754,50.2263,309.8676,0,U,39075,999,62146,.11019513E-3,-.84E-6,0
GLOBALSTAR M078,2013-005E,2026-07-19T08:24:48.579264,12.62260108,.00009362,51.9846,185.6638,350.4384,9.6465,0,U,39076,999,62007,-.4249153E-4,-.111E-5,0
GLOBALSTAR M095,2013-005F,2026-07-19T09:03:12.930336,12.62264091,.00005518,52.0053,183.2316,19.9475,340.1413,0,U,39077,999,61993,-.46914818E-4,-.112E-5,0
GLOBALSTAR M087,2022-064A,2026-07-19T11:16:05.726208,12.62269398,.00009038,52.0017,324.1716,90.4964,269.6006,0,U,52888,999,19521,.655619E-4,-.92E-6,0
